<?xml version="1.0" encoding="UTF-8"?>
<gpx version="1.1" creator="Ultra Sables" xmlns="http://www.topografix.com/GPX/1/1">
 <metadata><name>Sables-Talmont</name></metadata>
 <trk><name>Sables-Talmont</name><trkseg>
  <trkpt lat="46.49990" lon="-1.78112"><ele>5</ele></trkpt>
  <trkpt lat="46.49994" lon="-1.78102"><ele>5</ele></trkpt>
  <trkpt lat="46.49992" lon="-1.78098"><ele>5</ele></trkpt>
  <trkpt lat="46.49996" lon="-1.78089"><ele>5</ele></trkpt>
  <trkpt lat="46.49996" lon="-1.78088"><ele>5</ele></trkpt>
  <trkpt lat="46.49995" lon="-1.78084"><ele>5</ele></trkpt>
  <trkpt lat="46.49990" lon="-1.78086"><ele>5</ele></trkpt>
  <trkpt lat="46.49978" lon="-1.78087"><ele>5</ele></trkpt>
  <trkpt lat="46.49967" lon="-1.78077"><ele>5</ele></trkpt>
  <trkpt lat="46.49954" lon="-1.78065"><ele>5</ele></trkpt>
  <trkpt lat="46.49947" lon="-1.78059"><ele>5</ele></trkpt>
  <trkpt lat="46.49938" lon="-1.78050"><ele>5</ele></trkpt>
  <trkpt lat="46.49931" lon="-1.78041"><ele>5</ele></trkpt>
  <trkpt lat="46.49926" lon="-1.78047"><ele>5</ele></trkpt>
  <trkpt lat="46.49859" lon="-1.78124"><ele>5</ele></trkpt>
  <trkpt lat="46.49853" lon="-1.78132"><ele>5</ele></trkpt>
  <trkpt lat="46.49849" lon="-1.78136"><ele>5</ele></trkpt>
  <trkpt lat="46.49838" lon="-1.78148"><ele>5</ele></trkpt>
  <trkpt lat="46.49818" lon="-1.78170"><ele>5</ele></trkpt>
  <trkpt lat="46.49813" lon="-1.78177"><ele>5</ele></trkpt>
  <trkpt lat="46.49809" lon="-1.78191"><ele>5</ele></trkpt>
  <trkpt lat="46.49809" lon="-1.78195"><ele>5</ele></trkpt>
  <trkpt lat="46.49803" lon="-1.78200"><ele>5</ele></trkpt>
  <trkpt lat="46.49801" lon="-1.78199"><ele>5</ele></trkpt>
  <trkpt lat="46.49793" lon="-1.78204"><ele>5</ele></trkpt>
  <trkpt lat="46.49788" lon="-1.78207"><ele>5</ele></trkpt>
  <trkpt lat="46.49771" lon="-1.78226"><ele>6</ele></trkpt>
  <trkpt lat="46.49764" lon="-1.78233"><ele>6</ele></trkpt>
  <trkpt lat="46.49756" lon="-1.78233"><ele>6</ele></trkpt>
  <trkpt lat="46.49745" lon="-1.78235"><ele>6</ele></trkpt>
  <trkpt lat="46.49740" lon="-1.78241"><ele>6</ele></trkpt>
  <trkpt lat="46.49717" lon="-1.78237"><ele>7</ele></trkpt>
  <trkpt lat="46.49708" lon="-1.78232"><ele>7</ele></trkpt>
  <trkpt lat="46.49698" lon="-1.78237"><ele>7</ele></trkpt>
  <trkpt lat="46.49696" lon="-1.78236"><ele>7</ele></trkpt>
  <trkpt lat="46.49692" lon="-1.78235"><ele>7</ele></trkpt>
  <trkpt lat="46.49685" lon="-1.78235"><ele>7</ele></trkpt>
  <trkpt lat="46.49671" lon="-1.78235"><ele>8</ele></trkpt>
  <trkpt lat="46.49639" lon="-1.78234"><ele>8</ele></trkpt>
  <trkpt lat="46.49630" lon="-1.78234"><ele>8</ele></trkpt>
  <trkpt lat="46.49626" lon="-1.78234"><ele>8</ele></trkpt>
  <trkpt lat="46.49624" lon="-1.78221"><ele>8</ele></trkpt>
  <trkpt lat="46.49618" lon="-1.78185"><ele>8</ele></trkpt>
  <trkpt lat="46.49617" lon="-1.78178"><ele>8</ele></trkpt>
  <trkpt lat="46.49614" lon="-1.78178"><ele>8</ele></trkpt>
  <trkpt lat="46.49606" lon="-1.78171"><ele>8</ele></trkpt>
  <trkpt lat="46.49588" lon="-1.78158"><ele>7</ele></trkpt>
  <trkpt lat="46.49583" lon="-1.78155"><ele>7</ele></trkpt>
  <trkpt lat="46.49570" lon="-1.78150"><ele>7</ele></trkpt>
  <trkpt lat="46.49566" lon="-1.78168"><ele>7</ele></trkpt>
  <trkpt lat="46.49507" lon="-1.78148"><ele>6</ele></trkpt>
  <trkpt lat="46.49503" lon="-1.78147"><ele>6</ele></trkpt>
  <trkpt lat="46.49494" lon="-1.78145"><ele>6</ele></trkpt>
  <trkpt lat="46.49490" lon="-1.78144"><ele>6</ele></trkpt>
  <trkpt lat="46.49479" lon="-1.78145"><ele>6</ele></trkpt>
  <trkpt lat="46.49473" lon="-1.78148"><ele>5</ele></trkpt>
  <trkpt lat="46.49450" lon="-1.78156"><ele>5</ele></trkpt>
  <trkpt lat="46.49446" lon="-1.78157"><ele>5</ele></trkpt>
  <trkpt lat="46.49441" lon="-1.78158"><ele>5</ele></trkpt>
  <trkpt lat="46.49438" lon="-1.78159"><ele>5</ele></trkpt>
  <trkpt lat="46.49426" lon="-1.78093"><ele>4</ele></trkpt>
  <trkpt lat="46.49393" lon="-1.77993"><ele>2</ele></trkpt>
  <trkpt lat="46.49347" lon="-1.77865"><ele>2</ele></trkpt>
  <trkpt lat="46.49322" lon="-1.77794"><ele>2</ele></trkpt>
  <trkpt lat="46.49297" lon="-1.77725"><ele>2</ele></trkpt>
  <trkpt lat="46.49260" lon="-1.77658"><ele>2</ele></trkpt>
  <trkpt lat="46.49155" lon="-1.77512"><ele>1</ele></trkpt>
  <trkpt lat="46.49121" lon="-1.77463"><ele>1</ele></trkpt>
  <trkpt lat="46.49092" lon="-1.77397"><ele>1</ele></trkpt>
  <trkpt lat="46.49091" lon="-1.77394"><ele>1</ele></trkpt>
  <trkpt lat="46.49087" lon="-1.77384"><ele>1</ele></trkpt>
  <trkpt lat="46.49082" lon="-1.77358"><ele>1</ele></trkpt>
  <trkpt lat="46.49078" lon="-1.77334"><ele>1</ele></trkpt>
  <trkpt lat="46.49071" lon="-1.77320"><ele>1</ele></trkpt>
  <trkpt lat="46.49055" lon="-1.77296"><ele>1</ele></trkpt>
  <trkpt lat="46.49036" lon="-1.77258"><ele>1</ele></trkpt>
  <trkpt lat="46.49020" lon="-1.77209"><ele>1</ele></trkpt>
  <trkpt lat="46.49001" lon="-1.77178"><ele>2</ele></trkpt>
  <trkpt lat="46.48978" lon="-1.77116"><ele>2</ele></trkpt>
  <trkpt lat="46.48955" lon="-1.77066"><ele>3</ele></trkpt>
  <trkpt lat="46.48939" lon="-1.77035"><ele>4</ele></trkpt>
  <trkpt lat="46.48926" lon="-1.77001"><ele>4</ele></trkpt>
  <trkpt lat="46.48911" lon="-1.76957"><ele>5</ele></trkpt>
  <trkpt lat="46.48899" lon="-1.76944"><ele>5</ele></trkpt>
  <trkpt lat="46.48889" lon="-1.76942"><ele>5</ele></trkpt>
  <trkpt lat="46.48886" lon="-1.76941"><ele>5</ele></trkpt>
  <trkpt lat="46.48877" lon="-1.76941"><ele>5</ele></trkpt>
  <trkpt lat="46.48872" lon="-1.76937"><ele>6</ele></trkpt>
  <trkpt lat="46.48837" lon="-1.76903"><ele>6</ele></trkpt>
  <trkpt lat="46.48815" lon="-1.76881"><ele>6</ele></trkpt>
  <trkpt lat="46.48772" lon="-1.76840"><ele>6</ele></trkpt>
  <trkpt lat="46.48765" lon="-1.76834"><ele>6</ele></trkpt>
  <trkpt lat="46.48749" lon="-1.76819"><ele>6</ele></trkpt>
  <trkpt lat="46.48735" lon="-1.76805"><ele>7</ele></trkpt>
  <trkpt lat="46.48688" lon="-1.76760"><ele>6</ele></trkpt>
  <trkpt lat="46.48674" lon="-1.76747"><ele>6</ele></trkpt>
  <trkpt lat="46.48620" lon="-1.76695"><ele>5</ele></trkpt>
  <trkpt lat="46.48605" lon="-1.76681"><ele>5</ele></trkpt>
  <trkpt lat="46.48551" lon="-1.76629"><ele>4</ele></trkpt>
  <trkpt lat="46.48494" lon="-1.76575"><ele>3</ele></trkpt>
  <trkpt lat="46.48482" lon="-1.76556"><ele>3</ele></trkpt>
  <trkpt lat="46.48481" lon="-1.76556"><ele>3</ele></trkpt>
  <trkpt lat="46.48461" lon="-1.76539"><ele>3</ele></trkpt>
  <trkpt lat="46.48458" lon="-1.76529"><ele>3</ele></trkpt>
  <trkpt lat="46.48450" lon="-1.76526"><ele>2</ele></trkpt>
  <trkpt lat="46.48440" lon="-1.76517"><ele>2</ele></trkpt>
  <trkpt lat="46.48336" lon="-1.76395"><ele>1</ele></trkpt>
  <trkpt lat="46.48306" lon="-1.76361"><ele>0</ele></trkpt>
  <trkpt lat="46.48305" lon="-1.76359"><ele>0</ele></trkpt>
  <trkpt lat="46.48217" lon="-1.76255"><ele>1</ele></trkpt>
  <trkpt lat="46.48163" lon="-1.76192"><ele>2</ele></trkpt>
  <trkpt lat="46.48147" lon="-1.76173"><ele>2</ele></trkpt>
  <trkpt lat="46.48123" lon="-1.76145"><ele>2</ele></trkpt>
  <trkpt lat="46.48111" lon="-1.76133"><ele>3</ele></trkpt>
  <trkpt lat="46.48083" lon="-1.76103"><ele>3</ele></trkpt>
  <trkpt lat="46.48076" lon="-1.76098"><ele>3</ele></trkpt>
  <trkpt lat="46.48064" lon="-1.76088"><ele>3</ele></trkpt>
  <trkpt lat="46.48060" lon="-1.76085"><ele>3</ele></trkpt>
  <trkpt lat="46.48052" lon="-1.76081"><ele>4</ele></trkpt>
  <trkpt lat="46.48046" lon="-1.76081"><ele>4</ele></trkpt>
  <trkpt lat="46.48043" lon="-1.76075"><ele>4</ele></trkpt>
  <trkpt lat="46.48020" lon="-1.76070"><ele>4</ele></trkpt>
  <trkpt lat="46.48009" lon="-1.76067"><ele>4</ele></trkpt>
  <trkpt lat="46.47986" lon="-1.76060"><ele>4</ele></trkpt>
  <trkpt lat="46.47975" lon="-1.76054"><ele>4</ele></trkpt>
  <trkpt lat="46.47971" lon="-1.76052"><ele>4</ele></trkpt>
  <trkpt lat="46.47950" lon="-1.76046"><ele>4</ele></trkpt>
  <trkpt lat="46.47947" lon="-1.76050"><ele>4</ele></trkpt>
  <trkpt lat="46.47938" lon="-1.76050"><ele>4</ele></trkpt>
  <trkpt lat="46.47861" lon="-1.76024"><ele>3</ele></trkpt>
  <trkpt lat="46.47854" lon="-1.76029"><ele>3</ele></trkpt>
  <trkpt lat="46.47845" lon="-1.76033"><ele>3</ele></trkpt>
  <trkpt lat="46.47824" lon="-1.76023"><ele>3</ele></trkpt>
  <trkpt lat="46.47789" lon="-1.75989"><ele>3</ele></trkpt>
  <trkpt lat="46.47771" lon="-1.75970"><ele>3</ele></trkpt>
  <trkpt lat="46.47764" lon="-1.75958"><ele>3</ele></trkpt>
  <trkpt lat="46.47756" lon="-1.75928"><ele>3</ele></trkpt>
  <trkpt lat="46.47757" lon="-1.75921"><ele>3</ele></trkpt>
  <trkpt lat="46.47683" lon="-1.75805"><ele>3</ele></trkpt>
  <trkpt lat="46.47669" lon="-1.75789"><ele>3</ele></trkpt>
  <trkpt lat="46.47634" lon="-1.75758"><ele>3</ele></trkpt>
  <trkpt lat="46.47593" lon="-1.75700"><ele>3</ele></trkpt>
  <trkpt lat="46.47548" lon="-1.75645"><ele>3</ele></trkpt>
  <trkpt lat="46.47520" lon="-1.75597"><ele>3</ele></trkpt>
  <trkpt lat="46.47512" lon="-1.75573"><ele>3</ele></trkpt>
  <trkpt lat="46.47505" lon="-1.75532"><ele>2</ele></trkpt>
  <trkpt lat="46.47497" lon="-1.75467"><ele>2</ele></trkpt>
  <trkpt lat="46.47485" lon="-1.75411"><ele>2</ele></trkpt>
  <trkpt lat="46.47476" lon="-1.75407"><ele>2</ele></trkpt>
  <trkpt lat="46.47466" lon="-1.75352"><ele>2</ele></trkpt>
  <trkpt lat="46.47449" lon="-1.75337"><ele>2</ele></trkpt>
  <trkpt lat="46.47448" lon="-1.75332"><ele>2</ele></trkpt>
  <trkpt lat="46.47444" lon="-1.75283"><ele>2</ele></trkpt>
  <trkpt lat="46.47439" lon="-1.75253"><ele>2</ele></trkpt>
  <trkpt lat="46.47431" lon="-1.75220"><ele>2</ele></trkpt>
  <trkpt lat="46.47431" lon="-1.75216"><ele>2</ele></trkpt>
  <trkpt lat="46.47444" lon="-1.75198"><ele>2</ele></trkpt>
  <trkpt lat="46.47442" lon="-1.75188"><ele>3</ele></trkpt>
  <trkpt lat="46.47386" lon="-1.74908"><ele>5</ele></trkpt>
  <trkpt lat="46.47369" lon="-1.74842"><ele>5</ele></trkpt>
  <trkpt lat="46.47350" lon="-1.74792"><ele>6</ele></trkpt>
  <trkpt lat="46.47321" lon="-1.74737"><ele>6</ele></trkpt>
  <trkpt lat="46.47251" lon="-1.74632"><ele>6</ele></trkpt>
  <trkpt lat="46.47238" lon="-1.74613"><ele>6</ele></trkpt>
  <trkpt lat="46.47213" lon="-1.74567"><ele>6</ele></trkpt>
  <trkpt lat="46.47160" lon="-1.74458"><ele>6</ele></trkpt>
  <trkpt lat="46.47076" lon="-1.74320"><ele>6</ele></trkpt>
  <trkpt lat="46.47022" lon="-1.74241"><ele>5</ele></trkpt>
  <trkpt lat="46.47006" lon="-1.74219"><ele>5</ele></trkpt>
  <trkpt lat="46.46984" lon="-1.74197"><ele>4</ele></trkpt>
  <trkpt lat="46.46924" lon="-1.74165"><ele>4</ele></trkpt>
  <trkpt lat="46.46907" lon="-1.74154"><ele>4</ele></trkpt>
  <trkpt lat="46.46889" lon="-1.74136"><ele>3</ele></trkpt>
  <trkpt lat="46.46873" lon="-1.74112"><ele>3</ele></trkpt>
  <trkpt lat="46.46862" lon="-1.74087"><ele>3</ele></trkpt>
  <trkpt lat="46.46851" lon="-1.74044"><ele>3</ele></trkpt>
  <trkpt lat="46.46845" lon="-1.73965"><ele>2</ele></trkpt>
  <trkpt lat="46.46841" lon="-1.73935"><ele>2</ele></trkpt>
  <trkpt lat="46.46830" lon="-1.73888"><ele>2</ele></trkpt>
  <trkpt lat="46.46829" lon="-1.73859"><ele>2</ele></trkpt>
  <trkpt lat="46.46834" lon="-1.73828"><ele>2</ele></trkpt>
  <trkpt lat="46.46846" lon="-1.73774"><ele>2</ele></trkpt>
  <trkpt lat="46.46844" lon="-1.73743"><ele>2</ele></trkpt>
  <trkpt lat="46.46834" lon="-1.73717"><ele>2</ele></trkpt>
  <trkpt lat="46.46821" lon="-1.73698"><ele>2</ele></trkpt>
  <trkpt lat="46.46812" lon="-1.73690"><ele>3</ele></trkpt>
  <trkpt lat="46.46802" lon="-1.73687"><ele>3</ele></trkpt>
  <trkpt lat="46.46770" lon="-1.73688"><ele>3</ele></trkpt>
  <trkpt lat="46.46759" lon="-1.73686"><ele>3</ele></trkpt>
  <trkpt lat="46.46746" lon="-1.73676"><ele>3</ele></trkpt>
  <trkpt lat="46.46689" lon="-1.73579"><ele>4</ele></trkpt>
  <trkpt lat="46.46671" lon="-1.73543"><ele>4</ele></trkpt>
  <trkpt lat="46.46649" lon="-1.73451"><ele>3</ele></trkpt>
  <trkpt lat="46.46636" lon="-1.73393"><ele>3</ele></trkpt>
  <trkpt lat="46.46603" lon="-1.73248"><ele>5</ele></trkpt>
  <trkpt lat="46.46596" lon="-1.73222"><ele>5</ele></trkpt>
  <trkpt lat="46.46586" lon="-1.73203"><ele>5</ele></trkpt>
  <trkpt lat="46.46578" lon="-1.73196"><ele>5</ele></trkpt>
  <trkpt lat="46.46551" lon="-1.73185"><ele>6</ele></trkpt>
  <trkpt lat="46.46528" lon="-1.73170"><ele>6</ele></trkpt>
  <trkpt lat="46.46506" lon="-1.73161"><ele>7</ele></trkpt>
  <trkpt lat="46.46486" lon="-1.73158"><ele>7</ele></trkpt>
  <trkpt lat="46.46466" lon="-1.73148"><ele>8</ele></trkpt>
  <trkpt lat="46.46459" lon="-1.73140"><ele>8</ele></trkpt>
  <trkpt lat="46.46444" lon="-1.73099"><ele>9</ele></trkpt>
  <trkpt lat="46.46425" lon="-1.73063"><ele>10</ele></trkpt>
  <trkpt lat="46.46411" lon="-1.72995"><ele>11</ele></trkpt>
  <trkpt lat="46.46377" lon="-1.72842"><ele>16</ele></trkpt>
  <trkpt lat="46.46372" lon="-1.72808"><ele>17</ele></trkpt>
  <trkpt lat="46.46374" lon="-1.72757"><ele>18</ele></trkpt>
  <trkpt lat="46.46381" lon="-1.72663"><ele>19</ele></trkpt>
  <trkpt lat="46.46378" lon="-1.72619"><ele>20</ele></trkpt>
  <trkpt lat="46.46373" lon="-1.72572"><ele>20</ele></trkpt>
  <trkpt lat="46.46369" lon="-1.72530"><ele>21</ele></trkpt>
  <trkpt lat="46.46364" lon="-1.72476"><ele>21</ele></trkpt>
  <trkpt lat="46.46355" lon="-1.72348"><ele>21</ele></trkpt>
  <trkpt lat="46.46308" lon="-1.72096"><ele>20</ele></trkpt>
  <trkpt lat="46.46296" lon="-1.72050"><ele>20</ele></trkpt>
  <trkpt lat="46.46231" lon="-1.71906"><ele>20</ele></trkpt>
  <trkpt lat="46.46222" lon="-1.71891"><ele>20</ele></trkpt>
  <trkpt lat="46.46176" lon="-1.71841"><ele>19</ele></trkpt>
  <trkpt lat="46.46103" lon="-1.71783"><ele>17</ele></trkpt>
  <trkpt lat="46.46089" lon="-1.71768"><ele>16</ele></trkpt>
  <trkpt lat="46.46071" lon="-1.71742"><ele>16</ele></trkpt>
  <trkpt lat="46.46042" lon="-1.71688"><ele>14</ele></trkpt>
  <trkpt lat="46.45992" lon="-1.71619"><ele>11</ele></trkpt>
  <trkpt lat="46.45963" lon="-1.71561"><ele>9</ele></trkpt>
  <trkpt lat="46.45943" lon="-1.71526"><ele>7</ele></trkpt>
  <trkpt lat="46.45936" lon="-1.71520"><ele>7</ele></trkpt>
  <trkpt lat="46.45926" lon="-1.71507"><ele>6</ele></trkpt>
  <trkpt lat="46.45911" lon="-1.71473"><ele>5</ele></trkpt>
  <trkpt lat="46.45898" lon="-1.71419"><ele>4</ele></trkpt>
  <trkpt lat="46.45886" lon="-1.71400"><ele>4</ele></trkpt>
  <trkpt lat="46.45817" lon="-1.71358"><ele>5</ele></trkpt>
  <trkpt lat="46.45757" lon="-1.71309"><ele>5</ele></trkpt>
  <trkpt lat="46.45741" lon="-1.71309"><ele>5</ele></trkpt>
  <trkpt lat="46.45734" lon="-1.71306"><ele>5</ele></trkpt>
  <trkpt lat="46.45728" lon="-1.71299"><ele>6</ele></trkpt>
  <trkpt lat="46.45722" lon="-1.71278"><ele>6</ele></trkpt>
  <trkpt lat="46.45672" lon="-1.71236"><ele>6</ele></trkpt>
  <trkpt lat="46.45643" lon="-1.71217"><ele>7</ele></trkpt>
  <trkpt lat="46.45614" lon="-1.71206"><ele>7</ele></trkpt>
  <trkpt lat="46.45586" lon="-1.71206"><ele>7</ele></trkpt>
  <trkpt lat="46.45556" lon="-1.71199"><ele>7</ele></trkpt>
  <trkpt lat="46.45545" lon="-1.71190"><ele>7</ele></trkpt>
  <trkpt lat="46.45487" lon="-1.71178"><ele>6</ele></trkpt>
  <trkpt lat="46.45474" lon="-1.71174"><ele>6</ele></trkpt>
  <trkpt lat="46.45450" lon="-1.71177"><ele>6</ele></trkpt>
  <trkpt lat="46.45434" lon="-1.71168"><ele>6</ele></trkpt>
  <trkpt lat="46.45415" lon="-1.71142"><ele>7</ele></trkpt>
  <trkpt lat="46.45396" lon="-1.71092"><ele>8</ele></trkpt>
  <trkpt lat="46.45386" lon="-1.71076"><ele>8</ele></trkpt>
  <trkpt lat="46.45361" lon="-1.71043"><ele>9</ele></trkpt>
  <trkpt lat="46.45336" lon="-1.71026"><ele>10</ele></trkpt>
  <trkpt lat="46.45334" lon="-1.71012"><ele>10</ele></trkpt>
  <trkpt lat="46.45332" lon="-1.71003"><ele>10</ele></trkpt>
  <trkpt lat="46.45333" lon="-1.70982"><ele>11</ele></trkpt>
  <trkpt lat="46.45286" lon="-1.70702"><ele>16</ele></trkpt>
  <trkpt lat="46.45246" lon="-1.70484"><ele>18</ele></trkpt>
  <trkpt lat="46.45209" lon="-1.70298"><ele>19</ele></trkpt>
  <trkpt lat="46.45211" lon="-1.70297"><ele>19</ele></trkpt>
  <trkpt lat="46.45213" lon="-1.70296"><ele>19</ele></trkpt>
  <trkpt lat="46.45226" lon="-1.70287"><ele>19</ele></trkpt>
  <trkpt lat="46.45249" lon="-1.70256"><ele>19</ele></trkpt>
  <trkpt lat="46.45249" lon="-1.70246"><ele>19</ele></trkpt>
  <trkpt lat="46.45240" lon="-1.70211"><ele>19</ele></trkpt>
  <trkpt lat="46.45240" lon="-1.70207"><ele>19</ele></trkpt>
  <trkpt lat="46.45240" lon="-1.70203"><ele>19</ele></trkpt>
  <trkpt lat="46.45238" lon="-1.70192"><ele>18</ele></trkpt>
  <trkpt lat="46.45229" lon="-1.70177"><ele>18</ele></trkpt>
  <trkpt lat="46.45222" lon="-1.70172"><ele>18</ele></trkpt>
  <trkpt lat="46.45206" lon="-1.70170"><ele>18</ele></trkpt>
  <trkpt lat="46.45203" lon="-1.70170"><ele>18</ele></trkpt>
  <trkpt lat="46.45194" lon="-1.70171"><ele>18</ele></trkpt>
  <trkpt lat="46.45191" lon="-1.70171"><ele>18</ele></trkpt>
  <trkpt lat="46.45190" lon="-1.70170"><ele>18</ele></trkpt>
  <trkpt lat="46.45207" lon="-1.69937"><ele>16</ele></trkpt>
  <trkpt lat="46.45213" lon="-1.69892"><ele>15</ele></trkpt>
  <trkpt lat="46.45226" lon="-1.69796"><ele>14</ele></trkpt>
  <trkpt lat="46.45228" lon="-1.69787"><ele>14</ele></trkpt>
  <trkpt lat="46.45257" lon="-1.69742"><ele>13</ele></trkpt>
  <trkpt lat="46.45265" lon="-1.69713"><ele>13</ele></trkpt>
  <trkpt lat="46.45265" lon="-1.69688"><ele>13</ele></trkpt>
  <trkpt lat="46.45260" lon="-1.69668"><ele>13</ele></trkpt>
  <trkpt lat="46.45253" lon="-1.69656"><ele>12</ele></trkpt>
  <trkpt lat="46.45240" lon="-1.69644"><ele>12</ele></trkpt>
  <trkpt lat="46.45238" lon="-1.69637"><ele>12</ele></trkpt>
  <trkpt lat="46.45238" lon="-1.69631"><ele>12</ele></trkpt>
  <trkpt lat="46.45237" lon="-1.69629"><ele>12</ele></trkpt>
  <trkpt lat="46.45236" lon="-1.69621"><ele>12</ele></trkpt>
  <trkpt lat="46.45235" lon="-1.69618"><ele>12</ele></trkpt>
  <trkpt lat="46.45235" lon="-1.69613"><ele>12</ele></trkpt>
  <trkpt lat="46.45246" lon="-1.69593"><ele>12</ele></trkpt>
  <trkpt lat="46.45248" lon="-1.69592"><ele>12</ele></trkpt>
  <trkpt lat="46.45255" lon="-1.69589"><ele>11</ele></trkpt>
  <trkpt lat="46.45257" lon="-1.69588"><ele>11</ele></trkpt>
  <trkpt lat="46.45258" lon="-1.69585"><ele>11</ele></trkpt>
  <trkpt lat="46.45258" lon="-1.69578"><ele>11</ele></trkpt>
  <trkpt lat="46.45092" lon="-1.68867"><ele>13</ele></trkpt>
  <trkpt lat="46.45074" lon="-1.68778"><ele>14</ele></trkpt>
  <trkpt lat="46.45067" lon="-1.68700"><ele>15</ele></trkpt>
  <trkpt lat="46.45051" lon="-1.68682"><ele>15</ele></trkpt>
  <trkpt lat="46.45042" lon="-1.68660"><ele>16</ele></trkpt>
  <trkpt lat="46.45007" lon="-1.68614"><ele>16</ele></trkpt>
  <trkpt lat="46.44898" lon="-1.68515"><ele>18</ele></trkpt>
  <trkpt lat="46.44803" lon="-1.68425"><ele>18</ele></trkpt>
  <trkpt lat="46.44787" lon="-1.68402"><ele>19</ele></trkpt>
  <trkpt lat="46.44769" lon="-1.68377"><ele>19</ele></trkpt>
  <trkpt lat="46.44745" lon="-1.68291"><ele>19</ele></trkpt>
  <trkpt lat="46.44726" lon="-1.68210"><ele>19</ele></trkpt>
  <trkpt lat="46.44717" lon="-1.68151"><ele>19</ele></trkpt>
  <trkpt lat="46.44713" lon="-1.68096"><ele>19</ele></trkpt>
  <trkpt lat="46.44707" lon="-1.68082"><ele>19</ele></trkpt>
  <trkpt lat="46.44705" lon="-1.68067"><ele>19</ele></trkpt>
  <trkpt lat="46.44703" lon="-1.68014"><ele>19</ele></trkpt>
  <trkpt lat="46.44705" lon="-1.67973"><ele>19</ele></trkpt>
  <trkpt lat="46.44707" lon="-1.67941"><ele>19</ele></trkpt>
  <trkpt lat="46.44705" lon="-1.67939"><ele>19</ele></trkpt>
  <trkpt lat="46.44700" lon="-1.67937"><ele>18</ele></trkpt>
  <trkpt lat="46.44694" lon="-1.67925"><ele>18</ele></trkpt>
  <trkpt lat="46.44694" lon="-1.67907"><ele>18</ele></trkpt>
  <trkpt lat="46.44694" lon="-1.67897"><ele>18</ele></trkpt>
  <trkpt lat="46.44694" lon="-1.67891"><ele>18</ele></trkpt>
  <trkpt lat="46.44698" lon="-1.67881"><ele>18</ele></trkpt>
  <trkpt lat="46.44706" lon="-1.67807"><ele>18</ele></trkpt>
  <trkpt lat="46.44707" lon="-1.67765"><ele>18</ele></trkpt>
  <trkpt lat="46.44703" lon="-1.67720"><ele>17</ele></trkpt>
  <trkpt lat="46.44693" lon="-1.67661"><ele>17</ele></trkpt>
  <trkpt lat="46.44685" lon="-1.67625"><ele>16</ele></trkpt>
  <trkpt lat="46.44675" lon="-1.67597"><ele>16</ele></trkpt>
  <trkpt lat="46.44574" lon="-1.67387"><ele>13</ele></trkpt>
  <trkpt lat="46.44572" lon="-1.67382"><ele>13</ele></trkpt>
  <trkpt lat="46.44571" lon="-1.67380"><ele>13</ele></trkpt>
  <trkpt lat="46.44565" lon="-1.67370"><ele>13</ele></trkpt>
  <trkpt lat="46.44557" lon="-1.67373"><ele>13</ele></trkpt>
  <trkpt lat="46.44546" lon="-1.67363"><ele>13</ele></trkpt>
  <trkpt lat="46.44528" lon="-1.67356"><ele>12</ele></trkpt>
  <trkpt lat="46.44519" lon="-1.67342"><ele>12</ele></trkpt>
  <trkpt lat="46.44515" lon="-1.67333"><ele>12</ele></trkpt>
  <trkpt lat="46.44515" lon="-1.67321"><ele>12</ele></trkpt>
  <trkpt lat="46.44511" lon="-1.67311"><ele>12</ele></trkpt>
  <trkpt lat="46.44514" lon="-1.67284"><ele>12</ele></trkpt>
  <trkpt lat="46.44506" lon="-1.67264"><ele>12</ele></trkpt>
  <trkpt lat="46.44504" lon="-1.67251"><ele>12</ele></trkpt>
  <trkpt lat="46.44476" lon="-1.67194"><ele>12</ele></trkpt>
  <trkpt lat="46.44451" lon="-1.67124"><ele>12</ele></trkpt>
  <trkpt lat="46.44442" lon="-1.67075"><ele>12</ele></trkpt>
  <trkpt lat="46.44438" lon="-1.67041"><ele>12</ele></trkpt>
  <trkpt lat="46.44433" lon="-1.67027"><ele>12</ele></trkpt>
  <trkpt lat="46.44436" lon="-1.67020"><ele>12</ele></trkpt>
  <trkpt lat="46.44443" lon="-1.67011"><ele>12</ele></trkpt>
  <trkpt lat="46.44444" lon="-1.67000"><ele>12</ele></trkpt>
  <trkpt lat="46.44444" lon="-1.66952"><ele>12</ele></trkpt>
  <trkpt lat="46.44436" lon="-1.66945"><ele>12</ele></trkpt>
  <trkpt lat="46.44426" lon="-1.66929"><ele>12</ele></trkpt>
  <trkpt lat="46.44344" lon="-1.66767"><ele>11</ele></trkpt>
  <trkpt lat="46.44313" lon="-1.66720"><ele>11</ele></trkpt>
  <trkpt lat="46.44275" lon="-1.66662"><ele>11</ele></trkpt>
  <trkpt lat="46.44256" lon="-1.66629"><ele>11</ele></trkpt>
  <trkpt lat="46.44247" lon="-1.66603"><ele>11</ele></trkpt>
  <trkpt lat="46.44237" lon="-1.66516"><ele>11</ele></trkpt>
  <trkpt lat="46.44239" lon="-1.66508"><ele>11</ele></trkpt>
  <trkpt lat="46.44245" lon="-1.66503"><ele>11</ele></trkpt>
  <trkpt lat="46.44243" lon="-1.66496"><ele>11</ele></trkpt>
  <trkpt lat="46.44268" lon="-1.66488"><ele>11</ele></trkpt>
  <trkpt lat="46.44306" lon="-1.66473"><ele>11</ele></trkpt>
  <trkpt lat="46.44361" lon="-1.66450"><ele>11</ele></trkpt>
  <trkpt lat="46.44380" lon="-1.66446"><ele>11</ele></trkpt>
  <trkpt lat="46.44447" lon="-1.66465"><ele>12</ele></trkpt>
  <trkpt lat="46.44510" lon="-1.66489"><ele>12</ele></trkpt>
  <trkpt lat="46.44515" lon="-1.66473"><ele>12</ele></trkpt>
 </trkseg></trk>
</gpx>
